NORAD_CAT_ID,OBJECT_NAME,OBJECT_TYPE,EPOCH,MEAN_MOTION,ECCENTRICITY,INCLINATION,RA_OF_ASC_NODE,ARG_OF_PERICENTER,MEAN_ANOMALY,BSTAR,MEAN_MOTION_DOT,MEAN_MOTION_DDOT,TLE_LINE0,TLE_LINE1,TLE_LINE2,SEMIMAJOR_AXIS,PERIOD,APOGEE,PERIGEE,DECAYED
52616.0,STARLINK-4015,PAYLOAD,2024-07-23 23:26:02,15.08828832,0.0001135,53.2147,54.4069,78.1979,281.914,0.00013686,1.89e-05,0.0,0 STARLINK-4015,1 52616U 22052U   24205.97641737  .00001890  00000-0  13686-3 0  9993,2 52616  53.2147  54.4069 0001135  78.1979 281.9140 15.08828832121366,6917.915,95.438,540.565,538.994,0.0
52616.0,STARLINK-4015,PAYLOAD,2024-07-25 23:07:35,15.08844901,0.0001013,53.2165,45.4843,82.3703,277.7405,0.00011385,1.525e-05,0.0,0 STARLINK-4015,1 52616U 22052U   24207.96360874  .00001525  00000-0  11385-3 0  9993,2 52616  53.2165  45.4843 0001013  82.3703 277.7405 15.08844901122030,6917.865,95.437,540.431,539.03,0.0
52616.0,STARLINK-4015,PAYLOAD,2024-07-26 19:47:36,15.08841306,8.08e-05,53.217,41.6196,85.1252,274.9832,4.5272e-05,4.33e-06,0.0,0 STARLINK-4015,1 52616U 22052U   24208.82472942  .00000433  00000-0  45272-4 0  9999,2 52616  53.2170  41.6196 0000808  85.1252 274.9832 15.08841306122169,6917.876,95.437,540.3,539.182,0.0
52616.0,STARLINK-4015,PAYLOAD,2024-07-26 21:22:59,15.08843475,8.71e-05,53.2167,41.3219,86.9049,273.2043,6.3686e-05,7.26e-06,0.0,0 STARLINK-4015,1 52616U 22052U   24208.89096738  .00000726  00000-0  63686-4 0  9995,2 52616  53.2167  41.3219 0000871  86.9049 273.2043 15.08843475121806,6917.87,95.437,540.337,539.132,0.0
52616.0,STARLINK-4015,PAYLOAD,2024-07-27 05:19:54,15.08850238,0.0001091,53.2151,39.837,94.1107,266.001,0.00019582,2.831e-05,0.0,0 STARLINK-4015,1 52616U 22052U   24209.22215839  .00002831  00000-0  19582-3 0  9992,2 52616  53.2151  39.8370 0001091  94.1107 266.0010 15.08850238122226,6917.849,95.437,540.469,538.959,0.0
52616.0,STARLINK-4015,PAYLOAD,2024-07-27 21:13:48,15.08824768,0.0001559,53.2135,36.8626,85.2226,274.8944,-2.4736e-05,-6.81e-06,0.0,0 STARLINK-4015,1 52616U 22052U   24209.88458625 -.00000681  00000-0 -24736-4 0  9997,2 52616  53.2135  36.8626 0001559  85.2226 274.8944 15.08824768122324,6917.927,95.439,540.87,538.713,0.0
52616.0,STARLINK-4015,PAYLOAD,2024-07-28 19:29:11,15.08841418,0.0001004,53.2185,32.6985,91.1323,268.9784,-4.1336e-05,-9.46e-06,0.0,0 STARLINK-4015,1 52616U 22052U   24210.81193867 -.00000946  00000-0 -41336-4 0  9995,2 52616  53.2185  32.6985 0001004  91.1323 268.9784 15.08841418122462,6917.876,95.437,540.436,539.046,0.0
52616.0,STARLINK-4015,PAYLOAD,2024-07-28 21:04:34,15.08845469,9.55e-05,53.2193,32.4008,81.7439,278.3662,-1.9179e-05,-5.93e-06,0.0,0 STARLINK-4015,1 52616U 22052U   24210.87817420 -.00000593  00000-0 -19179-4 0  9997,2 52616  53.2193  32.4008 0000955  81.7439 278.3662 15.08845469122103,6917.864,95.437,540.389,539.068,0.0
52616.0,STARLINK-4015,PAYLOAD,2024-07-29 05:01:29,15.08855253,0.0001003,53.2188,30.9147,80.7167,279.3939,8.9366e-05,1.135e-05,0.0,0 STARLINK-4015,1 52616U 22052U   24211.20936618  .00001135  00000-0  89366-4 0  9992,2 52616  53.2188  30.9147 0001003  80.7167 279.3939 15.08855253122522,6917.834,95.437,540.393,539.005,0.0
52616.0,STARLINK-4015,PAYLOAD,2024-07-29 20:55:21,15.08841073,0.0001292,53.217,27.9406,78.9653,281.1485,9.827e-05,1.276e-05,0.0,0 STARLINK-4015,1 52616U 22052U   24211.87177724  .00001276  00000-0  98270-4 0  9990,2 52616  53.2170  27.9406 0001292  78.9653 281.1485 15.08841073122629,6917.877,95.437,540.636,538.848,0.0
52616.0,STARLINK-4015,PAYLOAD,2024-07-30 04:52:16,15.08848568,0.0001126,53.217,26.4544,82.6757,277.4363,0.00015876,2.24e-05,0.0,0 STARLINK-4015,1 52616U 22052U   24212.20296962  .00002240  00000-0  15876-3 0  9996,2 52616  53.2170  26.4544 0001126  82.6757 277.4363 15.08848568122673,6917.854,95.437,540.498,538.94,0.0
52616.0,STARLINK-4015,PAYLOAD,2024-07-30 20:46:08,15.08839477,0.0001287,53.2177,23.4786,80.098,280.0157,7.3712e-06,-1.71e-06,0.0,0 STARLINK-4015,1 52616U 22052U   24212.86538032 -.00000171  00000-0  73712-5 0  9992,2 52616  53.2177  23.4786 0001287  80.0980 280.0157 15.08839477122774,6917.882,95.438,540.637,538.857,0.0
52616.0,STARLINK-4015,PAYLOAD,2024-07-31 20:36:55,15.08840012,0.0001197,53.2163,19.0181,90.3234,269.7896,-3.598e-05,-8.6e-06,0.0,0 STARLINK-4015,1 52616U 22052U   24213.85898105 -.00000860  00000-0 -35980-4 0  9992,2 52616  53.2163  19.0181 0001197  90.3234 269.7896 15.08840012122552,6917.88,95.438,540.573,538.917,0.0
52616.0,STARLINK-4015,PAYLOAD,2024-08-01 17:16:55,15.08849322,0.0001332,53.2183,15.1524,92.6808,267.4337,0.00018999,2.738e-05,0.0,0 STARLINK-4015,1 52616U 22052U   24214.72008935  .00002738  00000-0  18999-3 0  9997,2 52616  53.2183  15.1524 0001332  92.6808 267.4337 15.08849322123059,6917.852,95.437,540.638,538.795,0.0
52616.0,STARLINK-4015,PAYLOAD,2024-08-02 10:46:11,15.08838128,0.000123,53.2183,11.8815,101.5776,258.5354,0.00019635,2.838e-05,0.0,0 STARLINK-4015,1 52616U 22052U   24215.44873888  .00002838  00000-0  19635-3 0  9993,2 52616  53.2183  11.8815 0001230 101.5776 258.5354 15.08838128123160,6917.886,95.438,540.602,538.9,0.0
52616.0,STARLINK-4015,PAYLOAD,2024-08-02 13:56:57,15.08826712,0.0001301,53.2187,11.2858,95.7561,264.358,1.4123e-05,-6.3e-07,0.0,0 STARLINK-4015,1 52616U 22052U   24215.58122517 -.00000063  00000-0  14123-4 0  9991,2 52616  53.2187  11.2858 0001301  95.7561 264.3580 15.08826712122813,6917.921,95.438,540.686,538.886,0.0
52616.0,STARLINK-4015,PAYLOAD,2024-08-02 17:07:43,15.08829827,0.0001266,53.2179,10.6912,89.7025,270.4112,-4.6785e-05,-1.032e-05,0.0,0 STARLINK-4015,1 52616U 22052U   24215.71370308 -.00001032  00000-0 -46785-4 0  9996,2 52616  53.2179  10.6912 0001266  89.7025 270.4112 15.08829827123209,6917.911,95.438,540.652,538.901,0.0
52616.0,STARLINK-4015,PAYLOAD,2024-08-03 10:36:58,15.08841901,0.0001235,53.2175,7.419,85.3038,274.8095,0.00013188,1.812e-05,0.0,0 STARLINK-4015,1 52616U 22052U   24216.44234059  .00001812  00000-0  13188-3 0  9993,2 52616  53.2175   7.4190 0001235  85.3038 274.8095 15.08841901123316,6917.875,95.437,540.594,538.885,0.0
52616.0,STARLINK-4015,PAYLOAD,2024-08-03 13:47:44,15.08840421,0.0001309,53.2172,6.8261,84.5239,275.5903,0.0001833,2.631e-05,0.0,0 STARLINK-4015,1 52616U 22052U   24216.57482234  .00002631  00000-0  18330-3 0  9991,2 52616  53.2172   6.8261 0001309  84.5239 275.5903 15.08840421122963,6917.879,95.438,540.65,538.839,0.0
52616.0,STARLINK-4015,PAYLOAD,2024-08-03 20:09:17,15.08852645,0.0001417,53.2178,5.6369,81.4388,278.6764,0.00092096,0.00014404,0.0,0 STARLINK-4015,1 52616U 22052U   24216.83978263  .00014404  00000-0  92096-3 0  9994,2 52616  53.2178   5.6369 0001417  81.4388 278.6764 15.08852645123002,6917.842,95.437,540.687,538.726,0.0
52616.0,STARLINK-4015,PAYLOAD,2024-08-04 02:30:49,15.08875424,0.0001477,53.2189,4.4484,83.2688,276.8472,0.0014024,0.00022123,0.0,0 STARLINK-4015,1 52616U 22052U   24217.10473583  .00022123  00000-0  14024-2 0  9991,2 52616  53.2189   4.4484 0001477  83.2688 276.8472 15.08875424123419,6917.772,95.435,540.659,538.615,0.0
52616.0,STARLINK-4015,PAYLOAD,2024-08-04 13:38:31,15.08843656,0.000135,53.2176,2.3667,86.9411,273.1735,7.2669e-05,8.69e-06,0.0,0 STARLINK-4015,1 52616U 22052U   24217.56841983  .00000869  00000-0  72669-4 0  9998,2 52616  53.2176   2.3667 0001350  86.9411 273.1735 15.08843656123110,6917.869,95.437,540.668,538.8,0.0
52616.0,STARLINK-4015,PAYLOAD,2024-08-04 16:49:17,15.088563,0.0001379,53.2177,1.7723,88.9778,271.1372,0.00062839,9.731e-05,0.0,0 STARLINK-4015,1 52616U 22052U   24217.70089778  .00009731  00000-0  62839-3 0  9994,2 52616  53.2177   1.7723 0001379  88.9778 271.1372 15.08856300123504,6917.831,95.437,540.65,538.742,0.0
52616.0,STARLINK-4015,PAYLOAD,2024-08-05 02:21:35,15.08896299,0.0001349,53.2181,359.9891,91.9468,268.1679,0.0031391,0.00050103,0.0,0 STARLINK-4015,1 52616U 22052U   24218.09832979  .00050103  00000-0  31391-2 0  9993,2 52616  53.2181 359.9891 0001349  91.9468 268.1679 15.08896299123563,6917.708,95.434,540.507,538.64,0.0
52616.0,STARLINK-4015,PAYLOAD,2024-08-05 16:40:05,15.08817087,0.0001385,53.2178,357.3127,82.0966,278.0184,0.0018032,0.00028508,0.0,0 STARLINK-4015,1 52616U 22052U   24218.69450799  .00028508  00000-0  18032-2 0  9996,2 52616  53.2178 357.3127 0001385  82.0966 278.0184 15.08817087123656,6917.95,95.439,540.774,538.857,0.0
52616.0,STARLINK-4015,PAYLOAD,2024-08-05 21:26:15,15.08829668,0.0001371,53.2176,356.4203,76.7219,283.3926,0.0023598,0.00037457,0.0,0 STARLINK-4015,1 52616U 22052U   24218.89323092  .00037457  00000-0  23598-2 0  9999,2 52616  53.2176 356.4203 0001371  76.7219 283.3926 15.08829668123319,6917.912,95.438,540.725,538.829,0.0
52616.0,STARLINK-4015,PAYLOAD,2024-08-06 08:33:57,15.08832231,0.000188,53.2172,354.3393,80.5488,279.5717,0.00099877,0.0001564,0.0,0 STARLINK-4015,1 52616U 22052U   24219.35691630  .00015640  00000-0  99877-3 0  9991,2 52616  53.2172 354.3393 0001880  80.5488 279.5717 15.08832231123751,6917.904,95.438,541.07,538.469,0.0
52616.0,STARLINK-4015,PAYLOAD,2024-08-06 13:20:07,15.08837615,0.0001693,53.2169,353.4483,82.0118,278.1066,0.0010661,0.00016719,0.0,0 STARLINK-4015,1 52616U 22052U   24219.55563675  .00016719  00000-0  10661-2 0  9991,2 52616  53.2169 353.4483 0001693  82.0118 278.1066 15.08837615123412,6917.888,95.438,540.924,538.581,0.0
52616.0,STARLINK-4015,PAYLOAD,2024-08-06 18:06:16,15.0884773,0.0001548,53.2178,352.555,83.5227,276.5941,0.0017906,0.0002833,0.0,0 STARLINK-4015,1 52616U 22052U   24219.75435603  .00028330  00000-0  17906-2 0  9993,2 52616  53.2178 352.5550 0001548  83.5227 276.5941 15.08847730123449,6917.857,95.437,540.793,538.651,0.0
52616.0,STARLINK-4015,PAYLOAD,2024-08-07 08:24:44,15.08854754,0.0001439,53.2159,349.878,92.426,267.6897,0.00084439,0.00013181,0.0,0 STARLINK-4015,1 52616U 22052U   24220.35051203  .00013181  00000-0  84439-3 0  9995,2 52616  53.2159 349.8780 0001439  92.4260 267.6897 15.08854754123532,6917.835,95.437,540.696,538.705,0.0
